[{"OBJECT_NAME":"JILIN-1 GAOFEN 03D48","OBJECT_ID":"2022-167P","EPOCH":"2026-03-09T23:48:37.804608","MEAN_MOTION":15.32947339,"ECCENTRICITY":0.00075954,"INCLINATION":97.6781,"RA_OF_ASC_NODE":234.4968,"ARG_OF_PERICENTER":111.3084,"MEAN_ANOMALY":248.8969,"EPHEMERIS_TYPE":0,"CLASSIFICATION_TYPE":"U","NORAD_CAT_ID":54695,"ELEMENT_SET_NO":999,"REV_AT_EPOCH":18018,"BSTAR":0.00049677114,"MEAN_MOTION_DOT":0.00015755,"MEAN_MOTION_DDOT":0},{"OBJECT_NAME":"STARLINK-34333","OBJECT_ID":"2025-120J","EPOCH":"2026-03-09T12:24:30.929760","MEAN_MOTION":15.30191213,"ECCENTRICITY":0.00015241,"INCLINATION":53.1602,"RA_OF_ASC_NODE":117.2177,"ARG_OF_PERICENTER":66.8946,"MEAN_ANOMALY":293.2215,"EPHEMERIS_TYPE":0,"CLASSIFICATION_TYPE":"U","NORAD_CAT_ID":64264,"ELEMENT_SET_NO":999,"REV_AT_EPOCH":4384,"BSTAR":0.00097034954,"MEAN_MOTION_DOT":0.00028482,"MEAN_MOTION_DDOT":0}]
